POPACS 1                
1 39268U 13055D   23291.79668274  .00055828  00000+0  11522-2 0  9998
2 39268  80.9893  65.6000 0475066 141.9581 221.6206 14.74987295526076
POPACS 2                
1 39269U 13055E   23291.83830466  .00020690  00000+0  51737-3 0  9990
2 39269  81.0034 140.5021 0590068 336.9674  20.6008 14.46962941520432
POPACS 3                
1 39270U 13055F   23292.11303949  .00012801  00000+0  36305-3 0  9994
2 39270  81.0124 183.6248 0653508  98.1840 269.3953 14.30850363518978
